LEMUR-2-GREENBERG       
1 42837U 17042N   26068.46200528  .00019778  00000+0  72539-3 0  9997
2 42837  97.3781 249.8007 0009157   4.0119 356.1192 15.27971352473146
STARLINK-34080          
1 64116U 25110W   26068.15805929  .00009919  00000+0  34707-3 0  9999
2 64116  53.1613  29.0457 0001178  71.3532 288.7597 15.30152732 45794
